[{"OBJECT_NAME":"STARLINK-30707","OBJECT_ID":"2023-148Q","EPOCH":"2026-03-09T04:29:20.218848","MEAN_MOTION":15.30207328,"ECCENTRICITY":7.842e-5,"INCLINATION":53.1613,"RA_OF_ASC_NODE":26.7399,"ARG_OF_PERICENTER":97.4654,"MEAN_ANOMALY":262.6436,"EPHEMERIS_TYPE":0,"CLASSIFICATION_TYPE":"U","NORAD_CAT_ID":57949,"ELEMENT_SET_NO":999,"REV_AT_EPOCH":13834,"BSTAR":-0.00012185983,"MEAN_MOTION_DOT":-3.967e-5,"MEAN_MOTION_DDOT":0},{"OBJECT_NAME":"TEVEL2-5","OBJECT_ID":"2025-052E","EPOCH":"2026-03-09T23:11:54.246048","MEAN_MOTION":15.30817434,"ECCENTRICITY":0.00047002,"INCLINATION":97.4013,"RA_OF_ASC_NODE":325.3677,"ARG_OF_PERICENTER":95.3936,"MEAN_ANOMALY":264.7842,"EPHEMERIS_TYPE":0,"CLASSIFICATION_TYPE":"U","NORAD_CAT_ID":63214,"ELEMENT_SET_NO":999,"REV_AT_EPOCH":5491,"BSTAR":0.00071764727,"MEAN_MOTION_DOT":0.00021339,"MEAN_MOTION_DDOT":0}]
